P/2020 O3 (PANSTARRS),e,8.4428,266.8228,81.5756,4.649596,0.0983063,0.10371940,46.9843,05/23.0/2022,2000,g 12.0,4.0
# From MPEC 2021-BE3
C/2020 P1 (NEOWISE),h,10/20.2316/2020,45.1079,53.5093,8.8871,1.000274,0.341566,2000,14.0,3.2
# From MPEC 2022-K19
C/2020 P3 (ATLAS),h,04/20.9194/2021,61.8871,19.4705,82.2544,1.000087,6.812333,2000,6.0,4.0
# From MPEC 2022-K19
C/2020 PV6 (PANSTARRS),e,128.2389,329.1452,71.3906,41.88981,0.0036353,0.94519660,0.8687,05/23.0/2022,2000,g 10.0,4.0
# From MPEC 2021-N06
C/2020 Q1 (Borisov),e,142.9208,52.4086,9.9026,58.57248,0.0021987,0.97754228,0.0000,08/14.5174/2020,2000,g 14.0,4.0
# From MPEC 2022-C56
C/2020 R2 (PANSTARRS),e,53.2285,195.0936,211.7493,405.5774,0.0001207,0.98843153,0.0000,02/24.5990/2022,2000,g  9.0,4.0
# From MPEC 2022-K19
C/2020 R4 (ATLAS),e,164.4619,323.2743,46.7212,99.23196,0.0009971,0.98963496,0.0000,03/01.9899/2021,2000,g 13.5,4.0
# From MPEC 2020-W26
P/2020 R5 (PANSTARRS),e,11.4504,272.9773,82.4834,4.983988,0.0885806,0.31472598,64.1248,05/23.0/2022,2000,g  9.5,6.0
# From MPEC 2021-Y10
C/2020 R6 (Rankin),e,82.8113,12.1776,271.9988,343.8092,0.0001546,0.99089100,0.0000,09/09.3664/2019,2000,g 11.0,4.0
# From MPEC 2022-K19
C/2020 R7 (ATLAS),h,09/16.2222/2022,114.8905,268.2819,347.8340,1.000058,2.955939,2000,7.0,3.2
# From MPEC 2021-BE3
P/2020 S1 (PANSTARRS),e,13.7329,129.4621,254.9435,5.987061,0.0672796,0.50759140,33.0179,05/23.0/2022,2000,g 14.0,4.0
# From MPEC 2021-BE3
C/2020 S2 (PANSTARRS),e,22.4011,197.6684,202.3029,10.20380,0.0302386,0.82789230,15.6323,05/23.0/2022,2000,g 17.0,4.0
# From MPEC 2022-C56
C/2020 S3 (Erasmus),e,19.9683,222.7024,350.0390,169.2999,0.0004474,0.99765851,0.0000,12/12.5919/2020,2000,g 13.5,3.2
# From MPEC 2022-H04
C/2020 S4 (PANSTARRS),h,02/09.2995/2023,20.5725,117.7220,21.0019,1.000636,3.369583,2000,8.5,3.2
# From MPEC 2021-BE3
P/2020 S5 (PANSTARRS),e,12.3525,316.0023,53.1259,4.052061,0.1208343,0.33861952,78.8042,05/23.0/2022,2000,g 14.5,4.0
# From MPEC 2021-P47
P/2020 S6 (Leonard),e,15.4606,242.5471,176.6710,3.600056,0.1442913,0.47939263,78.6819,05/23.0/2022,2000,g 16.0,4.0
# From MPEC 2021-BE3
P/2020 S7 (PANSTARRS),e,16.0916,328.0208,40.4954,5.026880,0.0874493,0.41072522,48.1441,05/23.0/2022,2000,g 14.5,4.0
# From MPEC 2021-P47
C/2020 S8 (Lemmon),e,108.5260,24.0596,160.3239,274.0296,0.0002173,0.99137519,0.0000,04/10.9076/2021,2000,g 12.5,4.0
# From MPEC 2022-K19
C/2020 T2 (Palomar),e,27.8641,83.0278,150.4384,324.8177,0.0001684,0.99367197,0.0000,07/11.2114/2021,2000,g 11.0,3.2
# From MPEC 2021-N06
P/2020 T3 (PANSTARRS),e,7.2962,74.0028,357.0348,3.517279,0.1494149,0.59176865,72.8372,05/23.0/2022,2000,g 18.0,3.2
# From MPEC 2021-N06
C/2020 T4 (PANSTARRS),h,07/05.2601/2021,83.8204,50.6150,79.6104,1.000074,2.191894,2000,13.0,3.2
# From MPEC 2021-BE3
C/2020 T5 (Lemmon),e,66.5829,237.8566,90.3122,814.5365,0.0000424,0.99767999,0.0000,10/09.5790/2020,2000,g 16.0,4.0
# From MPEC 2021-N06
P/2020 U2 (PANSTARRS),e,6.4210,342.8988,84.6344,3.778016,0.1342173,0.51081387,68.8852,05/23.0/2022,2000,g 18.0,4.0
# From MPEC 2021-W31
C/2020 U3 (Rankin),e,30.1692,282.6727,124.2847,65.77482,0.0018476,0.96539298,0.8701,05/23.0/2022,2000,g 15.0,4.0
# From MPEC 2022-K19
C/2020 U4 (PANSTARRS),h,04/08.0373/2022,167.0358,120.0137,69.5398,1.001309,5.353689,2000,7.0,4.0
# From MPEC 2022-K19
C/2020 U5 (PANSTARRS),e,97.2700,107.3354,75.4190,5001,0.0000028,0.99924894,0.0000,04/27.8990/2022,2000,g  8.0,4.0
# From MPEC 2022-K19
C/2020 V2 (ZTF),h,05/08.5163/2023,131.6105,212.3670,162.4106,1.001095,2.228146,2000,4.9,4.0
# From MPEC 2021-N06
P/2020 V3 (PANSTARRS),e,23.0318,198.2577,249.3412,8.374321,0.0406705,0.25604461,19.0433,05/23.0/2022,2000,g  8.3,4.0
# From MPEC 2022-K19
P/2020 V4 (Rankin),e,14.2432,203.4912,256.9939,9.354550,0.0344485,0.44963137,10.6522,05/23.0/2022,2000,g  9.0,4.0
# From MPEC 2021-BE3
P/2020 W1 (Rankin),e,10.7906,124.2656,264.9555,7.206732,0.0509444,0.26603994,39.5611,05/23.0/2022,2000,g 10.0,4.0
# From MPEC 2021-BE3
C/2020 W5 (Lemmon),h,11/30.0599/2020,88.5844,75.4945,24.4804,1.000677,3.364370,2000,15.0,4.0
# From MPEC 2022-K19
P/2020 WJ5 (Lemmon),e,22.2942,177.8107,338.3282,6.017134,0.0667759,0.17125643,21.6742,05/23.0/2022,2000,g  8.5,4.0
# From MPEC 2021-P47
P/2020 X1 (ATLAS),e,31.6934,56.0112,323.3222,4.528101,0.1022892,0.36554733,68.6804,05/23.0/2022,2000,g 13.0,4.0
# From MPEC 2021-U31
C/2020 X2 (ATLAS),e,18.1875,105.4477,347.3401,16.41903,0.0148144,0.76687406,8.1949,05/23.0/2022,2000,g 10.6,4.0
# From MPEC 2021-S45
C/2020 X4 (Leonard),e,80.6193,161.8867,140.3035,41.41939,0.0036974,0.87398069,2.0425,05/23.0/2022,2000,g  9.0,4.0
# From MPEC 2022-K19
C/2020 Y2 (ATLAS),e,101.2977,26.5138,266.1023,1111,0.0000266,0.99717946,0.0000,06/17.6862/2022,2000,g  6.5,4.0
# From MPEC 2021-R75
C/2020 Y3 (ATLAS),e,83.1012,191.4384,342.0112,146.8727,0.0005537,0.98639302,0.0000,12/03.4137/2020,2000,g 13.5,4.0
# From MPEC 2022-H04
C/2021 A1 (Leonard),e,132.6857,255.8969,225.0915,39141,0.0000001,0.99998428,0.0000,01/03.2963/2022,2000,g  8.5,4.0
# From MPEC 2022-F14
C/2021 A2 (NEOWISE),e,106.9779,125.2304,338.8182,244.3663,0.0002580,0.99421976,0.0000,01/22.5752/2021,2000,g 13.5,4.0
# From MPEC 2022-ED3
C/2021 A4 (NEOWISE),e,111.5408,307.1086,204.7053,42.82708,0.0035166,0.97322730,0.0000,03/19.9666/2021,2000,g 16.0,4.0
# From MPEC 2021-BE3
P/2021 A5 (PANSTARRS),e,18.1873,328.7682,61.2250,3.047236,0.1852870,0.13984794,103.1948,05/23.0/2022,2000,g 15.0,4.0
# From MPEC 2022-K19
C/2021 A6 (PANSTARRS),e,75.6124,164.0794,351.6827,10354,0.0000009,0.99923427,0.0000,05/03.9808/2021,2000,g  7.0,4.0
# From MPEC 2022-GA9
C/2021 A7 (NEOWISE),e,78.1498,154.5178,356.0442,4169,0.0000037,0.99952810,0.0000,07/15.2815/2021,2000,g 10.0,4.0
# From MPEC 2022-K19
C/2021 A9 (PANSTARRS),h,12/01.3452/2023,158.0249,314.8433,211.4540,1.003570,7.760090,2000,6.0,4.0
# From MPEC 2021-N06
C/2021 A10 (NEOWISE),e,151.8689,188.6157,82.4866,96.35609,0.0010420,0.98685336,0.0000,03/15.4441/2021,2000,g 19.0,4.0
# From MPEC 2022-ED3
C/2021 B2 (PANSTARRS),e,38.0899,120.5505,334.9645,350.6434,0.0001501,0.99283411,0.0000,05/04.2679/2021,2000,g 14.0,4.0
# From MPEC 2021-N06
C/2021 B3 (NEOWISE),e,119.4821,67.2860,293.5520,34.79163,0.0048028,0.93790925,2.1043,05/23.0/2022,2000,g 13.5,4.0
# From MPEC 2022-ED3
C/2021 C1 (Rankin),e,143.0449,186.8981,336.2929,113557,0.0000000,0.99996935,0.0000,12/07.0897/2020,2000,g 11.5,4.0
# From MPEC 2021-U31
P/2021 C2 (PANSTARRS),e,21.9293,66.4752,78.7673,9.535155,0.0334744,0.48722286,15.1655,05/23.0/2022,2000,g 12.0,4.0
# From MPEC 2021-N06
C/2021 C3 (Catalina),e,122.1643,181.9272,357.1246,62.86452,0.0019774,0.96379919,0.9188,05/23.0/2022,2000,g 14.0,4.0
# From MPEC 2022-H30
C/2021 C4 (ATLAS),e,132.8514,194.2764,320.2305,35007,0.0000002,0.99987134,0.0000,01/17.1151/2021,2000,g  9.0,4.0
# From MPEC 2022-K19
C/2021 C5 (PANSTARRS),e,50.7840,323.6894,270.9189,3736,0.0000043,0.99913223,0.0000,02/11.0613/2023,2000,g  9.0,4.0
# From MPEC 2022-F14
C/2021 C6 (Lemmon),h,11/13.2902/2021,164.6258,332.1556,203.5554,1.001491,3.271151,2000,12.0,4.0
# From MPEC 2022-F14
C/2021 D1 (SWAN),e,31.4536,311.2668,72.2381,98.45790,0.0010089,0.99084053,0.0000,02/27.6557/2021,2000,g 13.0,4.0
# From MPEC 2022-K19
C/2021 D2 (ZTF),h,02/03.9819/2022,83.8295,305.6798,125.0293,1.001577,2.946305,2000,9.0,4.0
# From MPEC 2021-N06
A/2021 E2,e,167.4883,190.8211,342.4458,234.4567,0.0002745,0.99024446,0.0000,12/10.4659/2020,2000,g 15.0,2.0
# From MPEC 2022-K19
C/2021 E3 (ZTF),h,06/11.9089/2022,112.5547,104.4683,228.8489,1.000878,1.777381,2000,8.5,4.0
# From MPEC 2022-GA9
A/2021 E4,e,116.3616,171.1742,48.2753,675.1512,0.0000562,0.99307416,0.0000,04/25.3076/2022,2000,g 13.5,2.0
# From MPEC 2022-H30
C/2021 F1 (Lemmon-PANSTARRS),e,107.3249,203.4515,146.8228,237.8203,0.0002687,0.99581417,0.0000,04/06.8735/2022,2000,g 13.5,4.0
# From MPEC 2021-J72
C/2021 G1 (Leonard),e,131.5604,270.6989,107.4725,75.00953,0.0015172,0.95435967,0.4625,05/23.0/2022,2000,g 14.0,4.0
# From MPEC 2022-J42
C/2021 G2 (ATLAS),e,48.4725,221.1129,343.3661,3849,0.0000041,0.99870642,0.0000,09/10.0235/2024,2000,g  5.5,4.0
# From MPEC 2022-ED3
C/2021 G3 (PANSTARRS),h,10/18.6350/2021,102.8908,147.4216,10.6525,1.001637,5.181576,2000,10.5,4.0
# From MPEC 2021-Y10
P/2021 HS (PANSTARRS),e,12.1701,262.3907,46.0892,4.194361,0.1147375,0.81008248,33.2311,05/23.0/2022,2000,g 22.0,4.0
# From MPEC 2022-C56
C/2021 J1 (Maury-Attard),e,92.7197,88.3272,147.3331,26.43748,0.0072506,0.93414870,3.3175,05/23.0/2022,2000,g 15.5,4.0
# From MPEC 2022-K19
C/2021 J2 (PANSTARRS),e,156.2106,23.3306,172.0563,117.7588,0.0007713,0.96003301,0.1871,05/23.0/2022,2000,g 12.0,4.0
# From MPEC 2021-S45
P/2021 J3 (ATLAS),e,14.5436,111.1919,126.0298,8.942492,0.0368567,0.45002875,38.8014,05/23.0/2022,2000,g  7.0,4.0
# From MPEC 2022-ED3
C/2021 K1 (ATLAS),e,16.2758,140.9023,184.2792,12.69545,0.0217887,0.80326489,8.3573,05/23.0/2022,2000,g 11.0,4.0
# From MPEC 2022-GA9
C/2021 K2 (MASTER),h,09/09.3741/2021,100.8446,282.2454,343.3474,1.001099,5.467355,2000,8.0,4.0
# From MPEC 2022-K19
C/2021 K3 (Catalina),h,02/02.9052/2022,134.7737,114.4518,182.0211,1.002837,5.229579,2000,10.0,4.0
# From MPEC 2021-W31
P/2021 L2 (Leonard),e,21.0699,266.6569,51.5163,4.050223,0.1209165,0.52142886,36.5846,05/23.0/2022,2000,g 17.0,4.0
# From MPEC 2022-K19
C/2021 L3 (Borisov),h,02/13.5637/2022,78.5801,344.9685,91.5887,1.001760,8.457846,2000,6.0,4.0
# From MPEC 2021-R75
P/2021 L4 (PANSTARRS),e,16.9608,243.2223,234.5495,3.165197,0.1750262,0.11845637,173.7285,05/23.0/2022,2000,g 13.5,4.0
# From MPEC 2021-P47
P/2021 N1 (ZTF),e,11.5048,301.1670,21.2021,2.977362,0.1918478,0.67671252,67.2347,05/23.0/2022,2000,g 19.0,4.0
# From MPEC 2022-GA9
P/2021 N2 (Fuls),e,13.0625,221.7420,177.3638,6.933146,0.0539894,0.45238593,10.2897,05/23.0/2022,2000,g  9.5,4.0
# From MPEC 2021-W31
C/2021 N3 (PANSTARRS),e,26.7452,337.4951,304.7025,159.8750,0.0004876,0.96427379,0.3127,05/23.0/2022,2000,g  8.5,4.0
# From MPEC 2022-A21
C/2021 O1 (Nishimura),e,27.5779,41.6081,74.4449,2572,0.0000076,0.99969409,0.0000,08/13.9308/2021,2000,g 10.5,4.0
